STARLINK-36433          
1 67501U 26012J   26193.45723501  .00009375  00000+0  34971-3 0  9998
2 67501  42.9988 329.7613 0001187 237.6585 122.4152 15.27584467 26841
STARLINK-36554          
1 67502U 26012K   26193.45081107  .00012048  00000+0  44642-3 0  9995
2 67502  43.0000 329.7149 0002260 283.7186  76.3414 15.27594209 26848
STARLINK-36552          
1 67503U 26012L   26193.44694907  .00014372  00000+0  53032-3 0  9998
2 67503  42.9949 329.6701 0002541 171.2836 188.8060 15.27605721 26845
STARLINK-36512          
1 67504U 26012M   26193.76617104  .00011057  00000+0  41038-3 0  9998
2 67504  43.0060 327.7787 0002394 267.6047  92.4531 15.27608135 26895
STARLINK-36545          
1 67505U 26012N   26193.76231217  .00011174  00000+0  41490-3 0  9998
2 67505  43.0078 327.7484 0003696 272.6266  87.4163 15.27582013 26895
STARLINK-36553          
1 67506U 26012P   26193.43153178  .00016696  00000+0  61457-3 0  9991
2 67506  42.9952 329.5509 0003505 150.3439 209.7612 15.27593647 26844
STARLINK-36521          
1 67507U 26012Q   26193.42894930  .00010577  00000+0  39304-3 0  9997
2 67507  42.9913 329.5288 0002777 157.8738 202.2234 15.27601966 26842
STARLINK-36526          
1 67508U 26012R   26193.35972094  .00007929  00000+0  29726-3 0  9992
2 67508  42.9990 329.8750 0001749 184.0918 175.9920 15.27591007 26836
STARLINK-36541          
1 67509U 26012S   26193.42014383  .00026854  00000+0  98166-3 0  9991
2 67509  43.0034 330.3669 0001589 275.7016  84.3655 15.27585075 26839
STARLINK-36549          
1 67510U 26012T   26193.42639345  .00011719  00000+0  43453-3 0  9997
2 67510  43.0073 329.5107 0004458 297.0401  62.9996 15.27590002 26841
STARLINK-36540          
1 67511U 26012U   26193.41626810  .00012144  00000+0  45018-3 0  9992
2 67511  42.9981 330.3289 0002873 285.7565  74.2970 15.27572717 26833
STARLINK-36538          
1 67512U 26012V   26193.73805593  .00011822  00000+0  43837-3 0  9994
2 67512  43.0004 328.4277 0001272 260.2103  99.8605 15.27584600 26882
STARLINK-36531          
1 67513U 26012W   26193.72777420  .00010840  00000+0  40251-3 0  9997
2 67513  42.9997 328.3522 0001454 277.5265  82.5421 15.27608937 26881
STARLINK-36530          
1 67514U 26012X   26193.39698616  .00012045  00000+0  44643-3 0  9998
2 67514  42.9931 330.1653 0001510 176.2828 183.8035 15.27584100 26835
STARLINK-36543          
1 67515U 26012Y   26193.72006560  .00012435  00000+0  46052-3 0  9996
2 67515  42.9998 328.2982 0000964 253.5608 106.5138 15.27588288 26881
STARLINK-36537          
1 67516U 26012Z   26193.70978235  .00011868  00000+0  43998-3 0  9997
2 67516  43.0026 328.2143 0002015 282.5531  77.5096 15.27588759 26884
STARLINK-36544          
1 67517U 26012AA  26193.71620826  .00009706  00000+0  36164-3 0  9994
2 67517  43.0010 328.2610 0001785 276.0001  84.0647 15.27589741 26887
STARLINK-36412          
1 67518U 26012AB  26193.43667077  .00015905  00000+0  58604-3 0  9994
2 67518  43.0008 329.5941 0001289 201.5246 158.5552 15.27591050 26843
STARLINK-36415          
1 67519U 26012AC  26193.43281899  .00018051  00000+0  66370-3 0  9993
2 67519  43.0002 329.5564 0001094 203.4145 156.6657 15.27589487 26848
STARLINK-36547          
1 67520U 26012AD  26193.44052638  .00010230  00000+0  38072-3 0  9992
2 67520  43.0021 329.6262 0001664 267.2740  92.7921 15.27582803 26848
STARLINK-36444          
1 67521U 26012AE  26193.70592856 -.00002604  00000+0 -85078-4 0  9990
2 67521  43.0022 328.1823 0001869 283.3650  76.6993 15.27592788 26880
HULIANWANG DIGUI-146    
1 67522U 26013A   26193.56960814 -.00000079  00000+0  97679-4 0  9992
2 67522  50.0071 264.8718 0001348 209.6368 150.4428 13.29324902 23423
HULIANWANG DIGUI-147    
1 67523U 26013B   26193.41075307 -.00000184  00000+0 -12885-3 0  9994
2 67523  50.0059 265.3202 0001348 217.9967 142.0810 13.29331700 23405
HULIANWANG DIGUI-148    
1 67524U 26013C   26193.62791049 -.00000082  00000+0  89898-4 0  9991
2 67524  50.0087 264.5297 0001238 208.5495 151.5309 13.29326500 23435
HULIANWANG DIGUI-149    
1 67525U 26013D   26194.22114085 -.00000076  00000+0  10385-3 0  9995
2 67525  50.0078 262.3216 0001487 212.4849 147.5932 13.29331451 23513
HULIANWANG DIGUI-150    
1 67526U 26013E   26194.20444480 -.00000039  00000+0  18308-3 0  9991
2 67526  50.0046 262.1771 0001314 212.4756 147.6036 13.29325764 23537
HULIANWANG DIGUI-151    
1 67527U 26013F   26192.18292347 -.00000166  00000+0 -89594-4 0  9998
2 67527  50.0104 269.5651 0001249 200.9047 159.1774 13.29329165 23247
HULIANWANG DIGUI-152    
1 67528U 26013G   26194.19601778 -.00000082  00000+0  91251-4 0  9993
2 67528  50.0034 262.1234 0001277 212.8646 147.2147 13.29332346 23511
HULIANWANG DIGUI-153    
1 67529U 26013H   26192.23306955 -.00000107  00000+0  37228-4 0  9998
2 67529  50.0049 269.0930 0001321 210.4596 149.6200 13.29325259 23246
HULIANWANG DIGUI-154    
1 67530U 26013J   26193.57786669 -.00000083  00000+0  88340-4 0  9996
2 67530  50.0059 264.2348 0001245 209.4550 150.6252 13.29332040 23427
STARLINK-36587          
1 67532U 26014A   26194.15341204  .00018471  00000+0  57286-3 0  9999
2 67532  97.2849  80.5433 0001029  91.9878 268.1482 15.33456360 28019
STARLINK-36417          
1 67533U 26014B   26193.66946035  .00026565  00000+0  82252-3 0  9992
2 67533  97.2837  79.9740 0001687 356.0977   4.0252 15.33435576 27933
STARLINK-36576          
1 67534U 26014C   26193.65855955  .00027051  00000+0  83727-3 0  9991
2 67534  97.2875  79.9937 0001215  74.4256 285.7121 15.33443168 27931
STARLINK-36574          
1 67535U 26014D   26194.16156361  .00010799  00000+0  33617-3 0  9998
2 67535  97.2869  80.5331 0001565  15.5717 344.5573 15.33462293 28012
STARLINK-36572          
1 67536U 26014E   26193.66128407  .00013576  00000+0  42173-3 0  9996
2 67536  97.2866  79.9889 0001870  96.3182 263.8274 15.33471885 27930
STARLINK-36561          
1 67537U 26014F   26193.97939629  .00014312  00000+0  44461-3 0  9998
2 67537  97.2886  80.3212 0000919  32.5031 327.6268 15.33459602 27987
STARLINK-36397          
1 67538U 26014G   26194.15884870  .00018109  00000+0  56164-3 0  9998
2 67538  97.2848  80.5314 0000939  86.6250 273.5100 15.33460970 28015
STARLINK-36573          
1 67539U 26014H   26193.65040243  .00012795  00000+0  39785-3 0  9996
2 67539  97.2880  80.0058 0002369 112.9715 247.1777 15.33452661 27935
STARLINK-36585          
1 67540U 26014J   26193.64496674  .00013508  00000+0  41993-3 0  9997
2 67540  97.2872  80.0104 0002042 104.4415 255.7055 15.33448423 27936
STARLINK-36579          
1 67541U 26014K   26194.13436486  .00003165  00000+0  10028-3 0  9991
2 67541  97.2863  80.5713 0001483  92.9438 267.1974 15.33457918 28018
STARLINK-35934          
1 67542U 26014L   26194.13981407  .00011272  00000+0  35083-3 0  9996
2 67542  97.2858  80.5636 0000416 126.5095 233.6186 15.33456664 28004
STARLINK-36581          
1 67543U 26014M   26193.64768322  .00015706  00000+0  48765-3 0  9998
2 67543  97.2874  80.0088 0002043 109.0969 251.0495 15.33455362 27935
STARLINK-36565          
1 67544U 26014N   26193.65585015 -.00000783  00000+0 -21927-4 0  9999
2 67544  97.2856  79.9965 0002094  78.4775 281.6703 15.33427940 27939
STARLINK-36583          
1 67545U 26014P   26194.15068825  .00019080  00000+0  59157-3 0  9994
2 67545  97.2847  80.5464 0000557 140.0437 220.0847 15.33459003 28016
STARLINK-36580          
1 67546U 26014Q   26193.66400002  .00006934  00000+0  21686-3 0  9997
2 67546  97.2848  79.9845 0002130  93.0766 267.0720 15.33449039 27933
STARLINK-36584          
1 67547U 26014R   26193.68847077  .00012169  00000+0  37856-3 0  9990
2 67547  97.2871  80.1058 0001097  29.8263 330.3042 15.33452112 27948
STARLINK-36586          
1 67548U 26014S   26193.68575203  .00016120  00000+0  50041-3 0  9992
2 67548  97.2870  80.1117 0002432  92.8699 267.2822 15.33453899 27948
STARLINK-36564          
1 67549U 26014T   26193.66671847  .00005041  00000+0  15838-3 0  9997
2 67549  97.2869  79.9824 0001472  18.1063 342.0232 15.33442200 27870
STARLINK-36563          
1 67550U 26014U   26193.68031555  .00016343  00000+0  50719-3 0  9991
2 67550  97.2892  80.1199 0001351  61.4311 298.7067 15.33462621 27940
STARLINK-36566          
1 67551U 26014V   26193.67216910  .00017488  00000+0  54282-3 0  9991
2 67551  97.2882  79.9792 0001393  73.3040 286.8355 15.33441221 27921
STARLINK-36567          
1 67552U 26014W   26193.69120504  .00005812  00000+0  18236-3 0  9994
2 67552  97.2845  80.0997 0001787  92.0362 268.1086 15.33419475 27934
STARLINK-36569          
1 67553U 26014X   26194.15612809  .00019652  00000+0  60910-3 0  9994
2 67553  97.2851  80.5408 0001213  92.2929 267.8453 15.33464171 28005
STARLINK-36395          
1 67554U 26014Y   26194.16930115  .00012527  00000+0  38963-3 0  9996
2 67554  97.2851  83.4202 0001119  87.3410 272.7961 15.33451899 28197
STARLINK-36559          
1 67555U 26014Z   26193.64224752  .00015156  00000+0  47076-3 0  9998
2 67555  97.2860  80.0145 0002001 104.4462 255.7003 15.33449452 27926
MR-2                    
1 67556U 26015A   26194.16695428  .00000038  00000+0  39818-4 0  9999
2 67556  88.9994 265.9080 0003915  37.4859 322.6566 13.52696331 23220
MR-1                    
1 67557U 26015B   26193.72632420  .00000029  00000+0  25862-4 0  9998
2 67557  88.9995 265.9528 0003982  37.0157 323.1269 13.52670753 23169
STARLINK-36426          
1 67560U 26014AA  26194.13167245  .00013775  00000+0  42790-3 0  9995
2 67560  97.2853  80.5726 0001820 104.3686 255.7759 15.33469076 28001
STARLINK-36621          
1 67561U 26016A   26193.73163556  .00014602  00000+0  45369-3 0  9999
2 67561  97.2843 253.3176 0000366  89.4212 270.7073 15.33450304 26022
STARLINK-36398          
1 67562U 26016B   26193.73977138  .00019079  00000+0  59175-3 0  9992
2 67562  97.2797 253.4596 0001058 229.8337 130.2814 15.33448316 26039
